OBJECT_NAME,OBJECT_ID,EPOCH,MEAN_MOTION,ECCENTRICITY,INCLINATION,RA_OF_ASC_NODE,ARG_OF_PERICENTER,MEAN_ANOMALY,EPHEMERIS_TYPE,CLASSIFICATION_TYPE,NORAD_CAT_ID,ELEMENT_SET_NO,REV_AT_EPOCH,BSTAR,MEAN_MOTION_DOT,MEAN_MOTION_DDOT
STARLINK-35725,2026-016E,2026-06-15T04:19:36.350112,15.33451256,.0000536,97.2844,226.1950,73.1143,287.0158,0,U,67565,999,2180,.47513166E-3,.15298E-3,0
STARLINK-36394,2026-016F,2026-06-15T02:49:33.193920,15.33448828,.00010617,97.2853,226.1258,210.3822,149.7360,0,U,67566,999,2179,.58457885E-3,.18847E-3,0
STARLINK-36352,2026-016G,2026-06-15T09:52:24.464064,15.33448713,.0000382,97.2847,226.4920,112.7109,247.4174,0,U,67567,999,2184,.43207E-3,.13901E-3,0
STARLINK-36435,2026-016H,2026-06-15T03:20:52.838880,15.33441752,.00012813,97.2848,226.2499,90.5388,269.6002,0,U,67568,999,2180,.37133747E-3,.11931E-3,0
STARLINK-36575,2026-016J,2026-06-15T03:07:20.652096,15.33452466,.00004658,97.2841,227.1733,75.2634,284.8660,0,U,67569,999,2186,.83183002E-3,.26881E-3,0
STARLINK-36562,2026-016K,2026-06-15T09:48:29.570112,15.33445689,.0000543,97.2847,226.4961,220.3976,139.7227,0,U,67570,999,2184,.44384E-3,.14281E-3,0
STARLINK-36578,2026-016L,2026-06-15T10:43:18.526944,15.33448343,.0000836,97.2864,226.4436,252.0366,108.0786,0,U,67571,999,2184,.65653E-3,.21182E-3,0
STARLINK-36350,2026-016M,2026-06-15T10:27:38.671200,15.33447495,.0000277,97.2852,226.4584,134.1249,226.0016,0,U,67572,999,2184,.42865E-3,.1379E-3,0
STARLINK-36588,2026-016N,2026-06-15T10:31:33.538368,15.33449633,.0000102,97.2869,226.4565,34.8136,325.3113,0,U,67573,999,2184,.63346E-3,.20433E-3,0
STARLINK-36594,2026-016P,2026-06-15T09:44:34.649376,15.33448457,.000072,97.2849,226.4994,106.0553,254.0769,0,U,67574,999,2184,.40542E-3,.13037E-3,0
STARLINK-36400,2026-016Q,2026-06-15T10:11:59.047872,15.33448990,.0000896,97.2866,226.4744,99.4011,260.7333,0,U,67575,999,2184,.37275E-3,.11979E-3,0
STARLINK-36591,2026-016R,2026-06-15T09:56:19.612032,15.33427054,.0000627,97.2844,226.4884,100.3854,259.7460,0,U,67576,999,2184,.37788E-3,.12137E-3,0
STARLINK-36590,2026-016S,2026-06-15T10:15:52.945632,15.33514675,.0001452,97.2865,226.4701,102.7752,257.3653,0,U,67577,999,2184,.61644E-3,.19922E-3,0
STARLINK-36613,2026-016T,2026-06-15T03:01:19.151040,15.33469311,.0000158,97.2844,226.1161,189.5193,170.6047,0,U,67578,999,2179,.862348E-3,.27889E-3,0
STARLINK-36571,2026-016U,2026-06-15T04:03:56.769984,15.33455566,.00010988,97.2834,226.2097,93.6535,266.4834,0,U,67579,999,2180,.82650021E-3,.26711E-3,0
STARLINK-36612,2026-016V,2026-06-15T03:13:03.064800,15.33445174,.00014039,97.2865,226.2599,72.1213,288.0183,0,U,67580,999,2180,.75705463E-3,.24445E-3,0
STARLINK-36632,2026-016W,2026-06-15T10:04:09.208128,15.33456572,.0001443,97.2856,226.4818,100.8578,259.2827,0,U,67581,999,2184,.69722E-3,.22509E-3,0
STARLINK-36609,2026-016X,2026-06-15T10:23:44.107296,15.33447820,.0002566,97.2849,226.4630,94.6660,265.4876,0,U,67582,999,2184,.10416E-2,.33707E-3,0
STARLINK-36577,2026-016Y,2026-06-15T03:09:07.922880,15.33449023,.00001672,97.2846,226.2586,39.3382,320.7873,0,U,67583,999,2180,.56903983E-3,.18342E-3,0
STARLINK-36419,2026-016Z,2026-06-15T09:40:39.866016,15.33445508,.000026,97.2844,226.5037,175.5499,184.5746,0,U,67584,999,2184,.47656E-3,.15341E-3,0
STARLINK-36560,2026-016AA,2026-06-15T10:47:13.255872,15.33449574,.0000766,97.2840,226.4408,311.5438,48.5739,0,U,67585,999,2184,.4394E-3,.14139E-3,0
STARLINK-36641,2026-018A,2026-06-15T04:27:10.662048,15.33480732,.00012942,97.2843,230.9828,68.5728,291.5653,0,U,67589,999,2227,.68320391E-3,.22071E-3,0
STARLINK-36376,2026-018B,2026-06-15T10:15:37.550016,15.33447970,.0000175,97.2854,231.2656,146.6202,213.5052,0,U,67590,999,2231,.40455E-3,.13009E-3,0
STARLINK-36391,2026-018C,2026-06-15T03:12:46.973664,15.33438662,.00013715,97.2849,230.9020,94.1724,265.9675,0,U,67591,999,2226,.36649329E-3,.11773E-3,0
STARLINK-36603,2026-018D,2026-06-15T10:07:47.761248,15.33449540,.0000269,97.2847,231.2736,163.0559,197.0693,0,U,67592,999,2231,.45097E-3,.14514E-3,0
STARLINK-36634,2026-018E,2026-06-15T03:44:05.757216,15.33458147,.00014701,97.2836,231.0233,64.6135,295.5260,0,U,67593,999,2227,.64681309E-3,.20873E-3,0
STARLINK-36638,2026-018F,2026-06-15T10:54:47.102976,15.33448476,.0000215,97.2869,231.2299,96.0384,264.0883,0,U,67594,999,2231,.43097E-3,.13865E-3,0
STARLINK-36628,2026-018G,2026-06-15T10:23:27.775104,15.33444650,.0000568,97.2848,231.2576,111.2297,248.9006,0,U,67595,999,2231,.43593E-3,.14024E-3,0
STARLINK-36629,2026-018H,2026-06-15T04:19:20.054208,15.33450660,.00008725,97.2842,230.9897,98.0580,262.0762,0,U,67596,999,2227,.78512253E-3,.25361E-3,0
STARLINK-36384,2026-018J,2026-06-15T03:20:38.350464,15.33404666,.00019504,97.2850,231.0478,78.2872,281.8590,0,U,67597,999,2227,.92369211E-3,.29826E-3,0
