STARLINK-35725          
1 67565U 26016E   26166.18028183  .00015298  00000+0  47513-3 0  9993
2 67565  97.2844 226.1950 0000536  73.1143 287.0158 15.33451256 21800
STARLINK-36394          
1 67566U 26016F   26166.11774530  .00018847  00000+0  58458-3 0  9994
2 67566  97.2853 226.1258 0001061 210.3822 149.7360 15.33448828 21793
STARLINK-36352          
1 67567U 26016G   26166.41139426  .00013901  00000+0  43207-3 0  9999
2 67567  97.2847 226.4920 0000382 112.7109 247.4174 15.33448713 21842
STARLINK-36435          
1 67568U 26016H   26166.13950045  .00011931  00000+0  37134-3 0  9990
2 67568  97.2848 226.2499 0001281  90.5388 269.6002 15.33441752 21802
STARLINK-36575          
1 67569U 26016J   26166.13010014  .00026881  00000+0  83183-3 0  9999
2 67569  97.2841 227.1733 0000465  75.2634 284.8660 15.33452466 21863
STARLINK-36562          
1 67570U 26016K   26166.40867558  .00014281  00000+0  44384-3 0  9995
2 67570  97.2847 226.4961 0000543 220.3976 139.7227 15.33445689 21849
STARLINK-36578          
1 67571U 26016L   26166.44674221  .00021182  00000+0  65653-3 0  9993
2 67571  97.2864 226.4436 0000836 252.0366 108.0786 15.33448343 21845
STARLINK-36350          
1 67572U 26016M   26166.43586425  .00013790  00000+0  42865-3 0  9997
2 67572  97.2852 226.4584 0000277 134.1249 226.0016 15.33447495 21840
STARLINK-36588          
1 67573U 26016N   26166.43858262  .00020433  00000+0  63346-3 0  9998
2 67573  97.2869 226.4565 0000102  34.8136 325.3113 15.33449633 21843
STARLINK-36594          
1 67574U 26016P   26166.40595659  .00013037  00000+0  40542-3 0  9999
2 67574  97.2849 226.4994 0000720 106.0553 254.0769 15.33448457 21847
STARLINK-36400          
1 67575U 26016Q   26166.42498898  .00011979  00000+0  37275-3 0  9991
2 67575  97.2866 226.4744 0000896  99.4011 260.7333 15.33448990 21841
STARLINK-36591          
1 67576U 26016R   26166.41411588  .00012137  00000+0  37788-3 0  9998
2 67576  97.2844 226.4884 0000627 100.3854 259.7460 15.33427054 21849
STARLINK-36590          
1 67577U 26016S   26166.42769613  .00019922  00000+0  61644-3 0  9992
2 67577  97.2865 226.4701 0001452 102.7752 257.3653 15.33514675 21845
STARLINK-36613          
1 67578U 26016T   26166.12591610  .00027889  00000+0  86235-3 0  9994
2 67578  97.2844 226.1161 0000158 189.5193 170.6047 15.33469311 21798
STARLINK-36571          
1 67579U 26016U   26166.16940706  .00026711  00000+0  82650-3 0  9993
2 67579  97.2834 226.2097 0001098  93.6535 266.4834 15.33455566 21803
STARLINK-36612          
1 67580U 26016V   26166.13406325  .00024445  00000+0  75705-3 0  9991
2 67580  97.2865 226.2599 0001403  72.1213 288.0183 15.33445174 21802
STARLINK-36632          
1 67581U 26016W   26166.41955102  .00022509  00000+0  69722-3 0  9996
2 67581  97.2856 226.4818 0001443 100.8578 259.2827 15.33456572 21849
STARLINK-36609          
1 67582U 26016X   26166.43314939  .00033707  00000+0  10416-2 0  9993
2 67582  97.2849 226.4630 0002566  94.6660 265.4876 15.33447820 21842
STARLINK-36577          
1 67583U 26016Y   26166.13134170  .00018342  00000+0  56904-3 0  9999
2 67583  97.2846 226.2586 0000167  39.3382 320.7873 15.33449023 21805
STARLINK-36419          
1 67584U 26016Z   26166.40323919  .00015341  00000+0  47656-3 0  9991
2 67584  97.2844 226.5037 0000260 175.5499 184.5746 15.33445508 21847
STARLINK-36560          
1 67585U 26016AA  26166.44945898  .00014139  00000+0  43940-3 0  9998
2 67585  97.2840 226.4408 0000766 311.5438  48.5739 15.33449574 21849
STARLINK-36641          
1 67589U 26018A   26166.18554007  .00022071  00000+0  68320-3 0  9996
2 67589  97.2843 230.9828 0001294  68.5728 291.5653 15.33480732 22274
STARLINK-36376          
1 67590U 26018B   26166.42751794  .00013009  00000+0  40455-3 0  9997
2 67590  97.2854 231.2656 0000175 146.6202 213.5052 15.33447970 22312
STARLINK-36391          
1 67591U 26018C   26166.13387701  .00011773  00000+0  36649-3 0  9995
2 67591  97.2849 230.9020 0001371  94.1724 265.9675 15.33438662 22267
STARLINK-36603          
1 67592U 26018D   26166.42208057  .00014514  00000+0  45097-3 0  9997
2 67592  97.2847 231.2736 0000269 163.0559 197.0693 15.33449540 22319
STARLINK-36634          
1 67593U 26018E   26166.15562219  .00020873  00000+0  64681-3 0  9996
2 67593  97.2836 231.0233 0001470  64.6135 295.5260 15.33458147 22271
STARLINK-36638          
1 67594U 26018F   26166.45471184  .00013865  00000+0  43097-3 0  9991
2 67594  97.2869 231.2299 0000215  96.0384 264.0883 15.33448476 22314
STARLINK-36628          
1 67595U 26018G   26166.43296036  .00014024  00000+0  43593-3 0  9990
2 67595  97.2848 231.2576 0000568 111.2297 248.9006 15.33444650 22312
STARLINK-36629          
1 67596U 26018H   26166.18009322  .00025361  00000+0  78512-3 0  9998
2 67596  97.2842 230.9897 0000872  98.0580 262.0762 15.33450660 22273
STARLINK-36384          
1 67597U 26018J   26166.13933276  .00029826  00000+0  92369-3 0  9994
2 67597  97.2850 231.0478 0001950  78.2872 281.8590 15.33404666 22275
